{
    "type": "FeatureCollection",
    "features": [
        {
            "type": "Feature",
            "properties": {},
            "geometry": {
                "type": "Polygon",
                "coordinates": [
                    [
                        [
                            123.6226277,
                            7.8268657
                        ],
                        [
                            123.6238526,
                            7.8374838
                        ],
                        [
                            123.6187487,
                            7.8444612
                        ],
                        [
                            123.624465,
                            7.8478993
                        ],
                        [
                            123.6269149,
                            7.8534609
                        ],
                        [
                            123.6278336,
                            7.8577079
                        ],
                        [
                            123.6322229,
                            7.8600336
                        ],
                        [
                            123.6469219,
                            7.8765155
                        ],
                        [
                            123.6633563,
                            7.8771222
                        ],
                        [
                            123.6728494,
                            7.8915812
                        ],
                        [
                            123.6540673,
                            7.8935023
                        ],
                        [
                            123.656313,
                            7.9013887
                        ],
                        [
                            123.6583691,
                            7.9177003
                        ],
                        [
                            123.6160146,
                            7.9297015
                        ],
                        [
                            123.6346081,
                            7.9748562
                        ],
                        [
                            123.6438943,
                            7.9869428
                        ],
                        [
                            123.6601677,
                            7.9921112
                        ],
                        [
                            123.6664426,
                            8.0081616
                        ],
                        [
                            123.646709,
                            8.0074574
                        ],
                        [
                            123.6266408,
                            8.0056994
                        ],
                        [
                            123.6288308,
                            8.0184385
                        ],
                        [
                            123.6261394,
                            8.0227276
                        ],
                        [
                            123.6014477,
                            8.0238032
                        ],
                        [
                            123.5742289,
                            8.0295627
                        ],
                        [
                            123.5516514,
                            8.0252394
                        ],
                        [
                            123.5335759,
                            8.0302853
                        ],
                        [
                            123.5308739,
                            8.0444995
                        ],
                        [
                            123.559685,
                            8.0448671
                        ],
                        [
                            123.5599588,
                            8.0600721
                        ],
                        [
                            123.5569083,
                            8.1053578
                        ],
                        [
                            123.530498,
                            8.1333405
                        ],
                        [
                            123.5119223,
                            8.1512214
                        ],
                        [
                            123.4604217,
                            8.1603034
                        ],
                        [
                            123.2058529,
                            8.181363
                        ],
                        [
                            123.0863967,
                            8.0216629
                        ],
                        [
                            123.0770948,
                            7.8156695
                        ],
                        [
                            123.0924074,
                            7.7212723
                        ],
                        [
                            123.1160657,
                            7.7153895
                        ],
                        [
                            123.0848718,
                            7.4830344
                        ],
                        [
                            123.4549302,
                            7.314012
                        ],
                        [
                            123.6226277,
                            7.8268657
                        ]
                    ]
                ]
            }
        }
    ]
}